[{"OBJECT_NAME":"STARLINK-5864","OBJECT_ID":"2023-037AC","EPOCH":"2026-03-09T21:53:20.184288","MEAN_MOTION":14.98316778,"ECCENTRICITY":0.0002723,"INCLINATION":69.998,"RA_OF_ASC_NODE":283.8894,"ARG_OF_PERICENTER":269.3008,"MEAN_ANOMALY":90.7839,"EPHEMERIS_TYPE":0,"CLASSIFICATION_TYPE":"U","NORAD_CAT_ID":55940,"ELEMENT_SET_NO":999,"REV_AT_EPOCH":16401,"BSTAR":5.7458998e-5,"MEAN_MOTION_DOT":5.92e-6,"MEAN_MOTION_DDOT":0},{"OBJECT_NAME":"FENGYUN 1C DEB","OBJECT_ID":"1999-025AWA","EPOCH":"2026-03-09T00:03:06.465024","MEAN_MOTION":14.61941395,"ECCENTRICITY":0.02164637,"INCLINATION":98.0221,"RA_OF_ASC_NODE":81.8458,"ARG_OF_PERICENTER":98.975,"MEAN_ANOMALY":263.602,"EPHEMERIS_TYPE":0,"CLASSIFICATION_TYPE":"U","NORAD_CAT_ID":30840,"ELEMENT_SET_NO":999,"REV_AT_EPOCH":74391,"BSTAR":0.00079130371,"MEAN_MOTION_DOT":5.495e-5,"MEAN_MOTION_DDOT":0}]
